CS1                     
1 49261U 21088B   26068.75173904  .00015722  00000+0  51176-3 0  9998
2 49261  97.3882 132.1684 0014129  78.0335 282.2490 15.31848439245182
STARLINK-30797          
1 58154U 23166E   26068.68911835  .00000191  00000+0  18569-4 0  9997
2 58154  53.1598 219.7810 0001101  92.5187 267.5940 15.30192386133029
